ProviderID,ProviderName,ProviderAddress,City,State,ZipCode,Hospital Referral Region Description,DRG Definition
1,SOUTHEAST ALABAMA MEDICAL CENTER,1108 ROSS CLARK CIRCLE,DOTHAN,AL,36301,AL - Dothan,039 - EXTRACRANIAL PROCEDURES W/O CC/MCC
2,MARSHALL MEDICAL CENTER SOUTH,2505 U S HIGHWAY 431 NORTH,BOAZ,AL,35957,AL - Birmingham,039 - EXTRACRANIAL PROCEDURES W/O CC/MCC
3,ELIZA COFFEE MEMORIAL HOSPITAL,205 MARENGO STREET,FLORENCE,AL,35631,AL - Birmingham,039 - EXTRACRANIAL PROCEDURES W/O CC/MCC
4,ST VINCENT'S EAST,50 MEDICAL PARK EAST DRIVE,BIRMINGHAM,AL,35235,AL - Birmingham,039 - EXTRACRANIAL PROCEDURES W/O CC/MCC
5,SHELBY BAPTIST MEDICAL CENTER,1000 FIRST STREET NORTH,ALABASTER,AL,35007,AL - Birmingham,039 - EXTRACRANIAL PROCEDURES W/O CC/MCC
6,BAPTIST MEDICAL CENTER SOUTH,2105 EAST SOUTH BOULEVARD,MONTGOMERY,AL,36116,AL - Montgomery,039 - EXTRACRANIAL PROCEDURES W/O CC/MCC
7,EAST ALABAMA MEDICAL CENTER AND SNF,2000 PEPPERELL PARKWAY,OPELIKA,AL,36801,AL - Birmingham,039 - EXTRACRANIAL PROCEDURES W/O CC/MCC
8,UNIVERSITY OF ALABAMA HOSPITAL,619 SOUTH 19TH STREET,BIRMINGHAM,AL,35233,AL - Birmingham,039 - EXTRACRANIAL PROCEDURES W/O CC/MCC
9,HUNTSVILLE HOSPITAL,101 SIVLEY RD,HUNTSVILLE,AL,35801,AL - Huntsville,039 - EXTRACRANIAL PROCEDURES W/O CC/MCC
10,GADSDEN REGIONAL MEDICAL CENTER,1007 GOODYEAR AVENUE,GADSDEN,AL,35903,AL - Birmingham,039 - EXTRACRANIAL PROCEDURES W/O CC/MCC
11,RIVERVIEW REGIONAL MEDICAL CENTER,600 SOUTH THIRD STREET,GADSDEN,AL,35901,AL - Birmingham,039 - EXTRACRANIAL PROCEDURES W/O CC/MCC
12,FLOWERS HOSPITAL,4370 WEST MAIN STREET,DOTHAN,AL,36305,AL - Dothan,039 - EXTRACRANIAL PROCEDURES W/O CC/MCC
13,ST VINCENT'S BIRMINGHAM,810 ST VINCENT'S DRIVE,BIRMINGHAM,AL,35205,AL - Birmingham,039 - EXTRACRANIAL PROCEDURES W/O CC/MCC
14,NORTHEAST ALABAMA REGIONAL MED CENTER,400 EAST 10TH STREET,ANNISTON,AL,36207,AL - Birmingham,039 - EXTRACRANIAL PROCEDURES W/O CC/MCC
15,SOUTH BALDWIN REGIONAL MEDICAL CENTER,1613 NORTH MCKENZIE STREET,FOLEY,AL,36535,AL - Mobile,039 - EXTRACRANIAL PROCEDURES W/O CC/MCC
16,DECATUR GENERAL HOSPITAL,1201 7TH STREET SE,DECATUR,AL,35609,AL - Huntsville,039 - EXTRACRANIAL PROCEDURES W/O CC/MCC
17,PROVIDENCE HOSPITAL,6801 AIRPORT BOULEVARD,MOBILE,AL,36608,AL - Mobile,039 - EXTRACRANIAL PROCEDURES W/O CC/MCC
18,D C H REGIONAL MEDICAL CENTER,809 UNIVERSITY BOULEVARD EAST,TUSCALOOSA,AL,35401,AL - Tuscaloosa,039 - EXTRACRANIAL PROCEDURES W/O CC/MCC
19,THOMAS HOSPITAL,750 MORPHY AVENUE,FAIRHOPE,AL,36532,AL - Mobile,039 - EXTRACRANIAL PROCEDURES W/O CC/MCC
20,BAPTIST MEDICAL CENTER-PRINCETON,701 PRINCETON AVENUE SOUTHWEST,BIRMINGHAM,AL,35211,AL - Birmingham,039 - EXTRACRANIAL PROCEDURES W/O CC/MCC
21,TRINITY MEDICAL CENTER,800 MONTCLAIR RD,BIRMINGHAM,AL,35213,AL - Birmingham,039 - EXTRACRANIAL PROCEDURES W/O CC/MCC
22,MOBILE INFIRMARY,5 MOBILE INFIRMARY CIRCLE,MOBILE,AL,36652,AL - Mobile,039 - EXTRACRANIAL PROCEDURES W/O CC/MCC
23,BROOKWOOD MEDICAL CENTER,2010 BROOKWOOD MEDICAL CENTER DRIVE,BIRMINGHAM,AL,35209,AL - Birmingham,039 - EXTRACRANIAL PROCEDURES W/O CC/MCC
24,ALASKA REGIONAL HOSPITAL,2801 DEBARR ROAD,ANCHORAGE,AK,99508,AK - Anchorage,039 - EXTRACRANIAL PROCEDURES W/O CC/MCC
25,BANNER GOOD SAMARITAN MEDICAL CENTER,1111 EAST MCDOWELL ROAD,PHOENIX,AZ,85006,AZ - Phoenix,039 - EXTRACRANIAL PROCEDURES W/O CC/MCC
26,TUCSON MEDICAL CENTER,5301 EAST GRANT ROAD,TUCSON,AZ,85712,AZ - Tucson,039 - EXTRACRANIAL PROCEDURES W/O CC/MCC
27,VERDE VALLEY MEDICAL CENTER,269 SOUTH CANDY LANE,COTTONWOOD,AZ,86326,AZ - Phoenix,039 - EXTRACRANIAL PROCEDURES W/O CC/MCC
28,CARONDELET ST  MARYS HOSPITAL,1601 WEST ST MARY'S ROAD,TUCSON,AZ,85745,AZ - Tucson,039 - EXTRACRANIAL PROCEDURES W/O CC/MCC
29,CARONDELET ST JOSEPHS HOSPITAL,350 NORTH WILMOT ROAD,TUCSON,AZ,85711,AZ - Tucson,039 - EXTRACRANIAL PROCEDURES W/O CC/MCC
30,YAVAPAI REGIONAL MEDICAL CENTER,1003 WILLOW CREEK ROAD,PRESCOTT,AZ,86301,AZ - Phoenix,039 - EXTRACRANIAL PROCEDURES W/O CC/MCC
31,YUMA REGIONAL MEDICAL CENTER,2400 SOUTH AVENUE A,YUMA,AZ,85364,AZ - Phoenix,039 - EXTRACRANIAL PROCEDURES W/O CC/MCC
32,FLAGSTAFF MEDICAL CENTER,1200 NORTH BEAVER STREET,FLAGSTAFF,AZ,86001,AZ - Phoenix,039 - EXTRACRANIAL PROCEDURES W/O CC/MCC
33,ST JOSEPH'S HOSPITAL AND MEDICAL CENTER,350 WEST THOMAS ROAD,PHOENIX,AZ,85013,AZ - Phoenix,039 - EXTRACRANIAL PROCEDURES W/O CC/MCC
34,PHOENIX BAPTIST HOSPITAL,2000 WEST BETHANY HOME ROAD,PHOENIX,AZ,85015,AZ - Phoenix,039 - EXTRACRANIAL PROCEDURES W/O CC/MCC
35,SCOTTSDALE HEALTHCARE-OSBORN MEDICAL CENTER,7400 EAST OSBORN ROAD,SCOTTSDALE,AZ,85251,AZ - Phoenix,039 - EXTRACRANIAL PROCEDURES W/O CC/MCC
36,BANNER BOSWELL MEDICAL CENTER,10401 WEST THUNDERBIRD BOULEVARD,SUN CITY,AZ,85351,AZ - Sun City,039 - EXTRACRANIAL PROCEDURES W/O CC/MCC
37,SUMMIT HEALTHCARE REGIONAL MEDICAL CENTER,2200 SHOW LOW LAKE ROAD,SHOW LOW,AZ,85901,AZ - Phoenix,039 - EXTRACRANIAL PROCEDURES W/O CC/MCC
38,BANNER DESERT MEDICAL CENTER,1400 SOUTH  DOBSON ROAD,MESA,AZ,85202,AZ - Mesa,039 - EXTRACRANIAL PROCEDURES W/O CC/MCC
39,HAVASU REGIONAL MEDICAL CENTER,101 CIVIC CENTER LANE,LAKE HAVASU CIT,AZ,86403,AZ - Phoenix,039 - EXTRACRANIAL PROCEDURES W/O CC/MCC
40,SCOTTSDALE HEALTHCARE-SHEA MEDICAL CENTER,9003 EAST SHEA BOULEVARD,SCOTTSDALE,AZ,85260,AZ - Phoenix,039 - EXTRACRANIAL PROCEDURES W/O CC/MCC
41,BANNER THUNDERBIRD MEDICAL CENTER,5555 WEST THUNDERBIRD ROAD,GLENDALE,AZ,85306,AZ - Phoenix,039 - EXTRACRANIAL PROCEDURES W/O CC/MCC
42,JOHN C LINCOLN DEER VALLEY HOSPITAL,19829 NORTH 27TH AVENUE,PHOENIX,AZ,85027,AZ - Phoenix,039 - EXTRACRANIAL PROCEDURES W/O CC/MCC
43,BANNER DEL E WEBB MEDICAL CENTER,14502 WEST MEEKER BOULEVARD,SUN CITY WEST,AZ,85375,AZ - Sun City,039 - EXTRACRANIAL PROCEDURES W/O CC/MCC
44,ARROWHEAD HOSPITAL,18701 NORTH 67TH AVENUE,GLENDALE,AZ,85308,AZ - Phoenix,039 - EXTRACRANIAL PROCEDURES W/O CC/MCC
45,CARONDELET HEART AND VASCULAR INSTITUTE,4888 NORTH STONE AVENUE,TUCSON,AZ,85704,AZ - Tucson,039 - EXTRACRANIAL PROCEDURES W/O CC/MCC
46,WESTERN ARIZONA REGIONAL MEDICAL CTR,2735 SILVER CREEK ROAD,BULLHEAD CITY,AZ,86442,NV - Las Vegas,039 - EXTRACRANIAL PROCEDURES W/O CC/MCC
47,MAYO CLINIC HOSPITAL,5777 EAST MAYO BOULEVARD,PHOENIX,AZ,85054,AZ - Phoenix,039 - EXTRACRANIAL PROCEDURES W/O CC/MCC
48,BANNER HEART HOSPITAL,6750 EAST BAYWOOD AVENUE,MESA,AZ,85206,AZ - Mesa,039 - EXTRACRANIAL PROCEDURES W/O CC/MCC
49,WASHINGTON REGIONAL MED CTR AT NORTH HILLS,3215 N NORTH HILLS BLVD,FAYETTEVILLE,AR,72703,AR - Springdale,039 - EXTRACRANIAL PROCEDURES W/O CC/MCC
50,ST VINCENT INFIRMARY MEDICAL CENTER,TWO ST VINCENT CIRCLE,LITTLE ROCK,AR,72205,AR - Little Rock,039 - EXTRACRANIAL PROCEDURES W/O CC/MCC
51,MERCY MEDICAL CENTER,2710 RIFE MEDICAL LANE,ROGERS,AR,72758,AR - Springdale,039 - EXTRACRANIAL PROCEDURES W/O CC/MCC
52,ST BERNARDS MEDICAL CTR,225 E JACKSON,JONESBORO,AR,72401,AR - Jonesboro,039 - EXTRACRANIAL PROCEDURES W/O CC/MCC
53,"NW ARKANSAS HOSPITALS, LLC",609 WEST MAPLE AVENUE,SPRINGDALE,AR,72764,AR - Springdale,039 - EXTRACRANIAL PROCEDURES W/O CC/MCC
54,ST JOSEPHS MERCY HEALTH CENTER INC,300 WERNER STREET,HOT SPRINGS,AR,71903,AR - Little Rock,039 - EXTRACRANIAL PROCEDURES W/O CC/MCC
55,BAXTER REGIONAL MEDICAL CENTER,624 HOSPITAL DRIVE,MOUNTAIN HOME,AR,72653,MO - Springfield,039 - EXTRACRANIAL PROCEDURES W/O CC/MCC
56,CONWAY REGIONAL MEDICAL CENTER,2302 COLLEGE AVENUE,CONWAY,AR,72034,AR - Little Rock,039 - EXTRACRANIAL PROCEDURES W/O CC/MCC
57,BAPTIST HEALTH MEDICAL CENTER NORTH LITTLE ROCK,3333 SPRINGHILL DRIVE,NORTH LITTLE RO,AR,72117,AR - Little Rock,039 - EXTRACRANIAL PROCEDURES W/O CC/MCC
58,ST EDWARD MERCY MEDICAL CENTER,7301 ROGERS AVE,FORT SMITH,AR,72917,AR - Fort Smith,039 - EXTRACRANIAL PROCEDURES W/O CC/MCC
59,JEFFERSON REGIONAL MEDICAL CENTER,1600 WEST 40TH AVENUE,PINE BLUFF,AR,71603,AR - Little Rock,039 - EXTRACRANIAL PROCEDURES W/O CC/MCC
60,NATIONAL PARK MEDICAL CENTER,1910 MALVERN AVENUE,HOT SPRINGS,AR,71901,AR - Little Rock,039 - EXTRACRANIAL PROCEDURES W/O CC/MCC
61,BAPTIST HEALTH MEDICAL CENTER-LITTLE ROCK,"9601 INTERSTATE 630, EXIT 7",LITTLE ROCK,AR,72205,AR - Little Rock,039 - EXTRACRANIAL PROCEDURES W/O CC/MCC
62,NEA BAPTIST MEMORIAL HOSPITAL,3024 STADIUM BOULEVARD,JONESBORO,AR,72401,AR - Jonesboro,039 - EXTRACRANIAL PROCEDURES W/O CC/MCC
63,WHITE RIVER MEDICAL CENTER,1710 HARRISON STREET,BATESVILLE,AR,72503,AR - Little Rock,039 - EXTRACRANIAL PROCEDURES W/O CC/MCC
64,ARKANSAS HEART HOSPITAL,1701 S SHACKLEFORD ROAD,LITTLE ROCK,AR,72211,AR - Little Rock,039 - EXTRACRANIAL PROCEDURES W/O CC/MCC
65,ST JOSEPH HOSPITAL,2700 DOLBEER ST,EUREKA,CA,95501,CA - Redding,039 - EXTRACRANIAL PROCEDURES W/O CC/MCC
66,PENINSULA MEDICAL CENTER,1501 TROUSDALE DRIVE,BURLINGAME,CA,94010,CA - San Mateo County,039 - EXTRACRANIAL PROCEDURES W/O CC/MCC
67,ST HELENA HOSPITAL,10 WOODLAND ROAD,SAINT HELENA,CA,94574,CA - Napa,039 - EXTRACRANIAL PROCEDURES W/O CC/MCC
68,MERCY GENERAL HOSPITAL,4001 J ST,SACRAMENTO,CA,95819,CA - Sacramento,039 - EXTRACRANIAL PROCEDURES W/O CC/MCC
69,GROSSMONT HOSPITAL,5555 GROSSMONT CENTER DRIVE BOX 58,LA MESA,CA,91942,CA - San Diego,039 - EXTRACRANIAL PROCEDURES W/O CC/MCC
70,BAKERSFIELD MEMORIAL HOSPITAL,420 34TH ST BOX 1888,BAKERSFIELD,CA,93301,CA - Bakersfield,039 - EXTRACRANIAL PROCEDURES W/O CC/MCC
71,ENLOE MEDICAL CENTER,1531 ESPLANADE,CHICO,CA,95926,CA - Chico,039 - EXTRACRANIAL PROCEDURES W/O CC/MCC
72,ANTELOPE VALLEY HOSPITAL MED CENTER,1600 W AVE J,LANCASTER,CA,93534,CA - Los Angeles,039 - EXTRACRANIAL PROCEDURES W/O CC/MCC
73,KAWEAH DELTA MEDICAL CENTER,400 W MINERAL KING AVE,VISALIA,CA,93291,CA - Bakersfield,039 - EXTRACRANIAL PROCEDURES W/O CC/MCC
74,GLENDALE MEM HOSPITAL & HLTH CENTER,1420 S CENTRAL AVE,GLENDALE,CA,91204,CA - Los Angeles,039 - EXTRACRANIAL PROCEDURES W/O CC/MCC
75,ST JOSEPH HOSPITAL,1100 WEST STEWART DR,ORANGE,CA,92868,CA - Orange County,039 - EXTRACRANIAL PROCEDURES W/O CC/MCC
76,SCRIPPS MERCY HOSPITAL,4077 5TH AVE,SAN DIEGO,CA,92103,CA - San Diego,039 - EXTRACRANIAL PROCEDURES W/O CC/MCC
77,ST JOHNS REGIONAL MEDICAL CENTER,1600 N ROSE AVE,OXNARD,CA,93030,CA - Ventura,039 - EXTRACRANIAL PROCEDURES W/O CC/MCC
78,ST JOSEPHS MED CENTER OF STOCKTON,1800 N CALIFORNIA ST,STOCKTON,CA,95204,CA - Stockton,039 - EXTRACRANIAL PROCEDURES W/O CC/MCC
79,SAINT AGNES MEDICAL CENTER,1303 E HERNDON AVE,FRESNO,CA,93710,CA - Fresno,039 - EXTRACRANIAL PROCEDURES W/O CC/MCC
80,MARIAN MEDICAL CENTER,1400 E CHURCH ST,SANTA MARIA,CA,93454,CA - Santa Barbara,039 - EXTRACRANIAL PROCEDURES W/O CC/MCC
81,SUTTER GENERAL HOSPITAL,2801 L STREET,SACRAMENTO,CA,95816,CA - Sacramento,039 - EXTRACRANIAL PROCEDURES W/O CC/MCC
82,PALOMAR MEDICAL CENTER,555 E VALLEY PARKWAY,ESCONDIDO,CA,92025,CA - San Diego,039 - EXTRACRANIAL PROCEDURES W/O CC/MCC
83,TRI-CITY MEDICAL CENTER,4002 VISTA WAY,OCEANSIDE,CA,92056,CA - San Diego,039 - EXTRACRANIAL PROCEDURES W/O CC/MCC
84,RIDEOUT MEMORIAL HOSPITAL,726 4TH ST,MARYSVILLE,CA,95901,CA - Sacramento,039 - EXTRACRANIAL PROCEDURES W/O CC/MCC
85,ST JUDE MEDICAL CENTER,101 E VALENCIA MESA DRIVE,FULLERTON,CA,92835,CA - Orange County,039 - EXTRACRANIAL PROCEDURES W/O CC/MCC
86,SANTA ROSA MEMORIAL HOSPITAL,1165 MONTGOMERY DR,SANTA ROSA,CA,95405,CA - Santa Rosa,039 - EXTRACRANIAL PROCEDURES W/O CC/MCC
87,EMANUEL MEDICAL CENTER INC,825 DELBON AVE,TURLOCK,CA,95382,CA - Modesto,039 - EXTRACRANIAL PROCEDURES W/O CC/MCC
88,LONG BEACH MEMORIAL MEDICAL CENTER,2801 ATLANTIC AVE,LONG BEACH,CA,90806,CA - Los Angeles,039 - EXTRACRANIAL PROCEDURES W/O CC/MCC
89,JOHN MUIR MEDICAL CENTER - WALNUT CREEK CAMPUS,1601 YGNACIO VALLEY RD,WALNUT CREEK,CA,94598,CA - Contra Costa County,039 - EXTRACRANIAL PROCEDURES W/O CC/MCC
90,SEQUOIA HOSPITAL,170 ALAMEDA DE LAS PULGAS,REDWOOD CITY,CA,94062,CA - San Mateo County,039 - EXTRACRANIAL PROCEDURES W/O CC/MCC
91,SHARP CHULA VISTA MEDICAL CENTER,751 MEDICAL CENTER COURT,CHULA VISTA,CA,91911,CA - San Diego,039 - EXTRACRANIAL PROCEDURES W/O CC/MCC
92,HOAG MEMORIAL HOSPITAL PRESBYTERIAN,ONE HOAG DRIVE,NEWPORT BEACH,CA,92663,CA - Orange County,039 - EXTRACRANIAL PROCEDURES W/O CC/MCC
93,FEATHER RIVER HOSPITAL,5974 PENTZ ROAD,PARADISE,CA,95969,CA - Chico,039 - EXTRACRANIAL PROCEDURES W/O CC/MCC
94,FRENCH HOSPITAL MEDICAL CENTER,1911 JOHNSON AVE,SAN LUIS OBISPO,CA,93401,CA - San Luis Obispo,039 - EXTRACRANIAL PROCEDURES W/O CC/MCC
95,PROVIDENCE SAINT JOSEPH MEDICAL CTR,501 SOUTH BUENA VISTA,BURBANK,CA,91505,CA - Los Angeles,039 - EXTRACRANIAL PROCEDURES W/O CC/MCC
96,METHODIST HOSPITAL OF SOUTHERN CA,300 W HUNTINGTON DR,ARCADIA,CA,91006,CA - Los Angeles,039 - EXTRACRANIAL PROCEDURES W/O CC/MCC
97,DESERT REGIONAL MEDICAL CENTER,1150 NORTH INDIAN CANYON DRIVE,PALM SPRINGS,CA,92262,CA - Palm Springs/Rancho M,039 - EXTRACRANIAL PROCEDURES W/O CC/MCC
98,RONALD REAGAN UCLA MEDICAL CENTER,757 WESTWOOD PLAZA,LOS ANGELES,CA,90095,CA - Los Angeles,039 - EXTRACRANIAL PROCEDURES W/O CC/MCC
99,MERCY MEDICAL CENTER REDDING,"2175 ROSALINE AVE, CLAIRMONT HGTS",REDDING,CA,96001,CA - Redding,039 - EXTRACRANIAL PROCEDURES W/O CC/MCC
100,SAINT JOHN'S HEALTH CENTER,2121 SANTA MONICA BLVD,SANTA MONICA,CA,90404,CA - Los Angeles,039 - EXTRACRANIAL PROCEDURES W/O CC/MCC
101,SUTTER MEDICAL CENTER OF SANTA ROSA,3325 CHANATE RD,SANTA ROSA,CA,95404,CA - Santa Rosa,039 - EXTRACRANIAL PROCEDURES W/O CC/MCC
102,MERCY HOSPITAL,2215 TRUXTUN AVENUE,BAKERSFIELD,CA,93301,CA - Bakersfield,039 - EXTRACRANIAL PROCEDURES W/O CC/MCC
103,EL CAMINO HOSPITAL,2500 GRANT ROAD,MOUNTAIN VIEW,CA,94040,CA - San Jose,039 - EXTRACRANIAL PROCEDURES W/O CC/MCC
104,SUTTER ROSEVILLE MEDICAL CENTER,ONE MEDICAL PLAZA,ROSEVILLE,CA,95661,CA - Sacramento,039 - EXTRACRANIAL PROCEDURES W/O CC/MCC
105,SALINAS VALLEY MEMORIAL HOSPITAL,450 EAST ROMIE LANE,SALINAS,CA,93901,CA - Salinas,039 - EXTRACRANIAL PROCEDURES W/O CC/MCC
106,TORRANCE MEMORIAL MEDICAL CENTER,3330 LOMITA BLVD,TORRANCE,CA,90509,CA - Los Angeles,039 - EXTRACRANIAL PROCEDURES W/O CC/MCC
107,MARIN GENERAL HOSPITAL,"250 BON AIR ROAD, PO BOX 8010",GREENBRAE,CA,94904,CA - San Francisco,039 - EXTRACRANIAL PROCEDURES W/O CC/MCC
108,GOOD SAMARITAN HOSPITAL,2425 SAMARITAN DRIVE,SAN JOSE,CA,95124,CA - San Jose,039 - EXTRACRANIAL PROCEDURES W/O CC/MCC
109,CITRUS VALLEY MEDICAL CENTER-IC CAMPUS,210 W  SAN BERNARDINO ROAD,COVINA,CA,91723,CA - Los Angeles,039 - EXTRACRANIAL PROCEDURES W/O CC/MCC
110,HEMET VALLEY MEDICAL CENTER,1117 EAST DEVONSHIRE,HEMET,CA,92543,CA - San Bernardino,039 - EXTRACRANIAL PROCEDURES W/O CC/MCC
111,COMMUNITY MEMORIAL HOSPITAL SAN BUENAVENTURA,147 N BRENT ST,VENTURA,CA,93003,CA - Ventura,039 - EXTRACRANIAL PROCEDURES W/O CC/MCC
112,SANTA BARBARA COTTAGE HOSPITAL,400 WEST PUEBLO,SANTA BARBARA,CA,93102,CA - Santa Barbara,039 - EXTRACRANIAL PROCEDURES W/O CC/MCC
113,SCRIPPS GREEN HOSPITAL,10666 NORTH TORREY PINES ROAD,LA JOLLA,CA,92037,CA - San Diego,039 - EXTRACRANIAL PROCEDURES W/O CC/MCC
114,HUNTINGTON MEMORIAL HOSPITAL,100 W  CALIFORNIA BLVD,PASADENA,CA,91109,CA - Los Angeles,039 - EXTRACRANIAL PROCEDURES W/O CC/MCC
115,STANFORD HOSPITAL,300 PASTEUR DRIVE,STANFORD,CA,94305,CA - San Mateo County,039 - EXTRACRANIAL PROCEDURES W/O CC/MCC
116,DOCTORS MEDICAL CENTER,1441 FLORIDA AVENUE,MODESTO,CA,95350,CA - Modesto,039 - EXTRACRANIAL PROCEDURES W/O CC/MCC
117,WEST HILLS HOSPITAL & MEDICAL CENTER,7300 MEDICAL CENTER DR,WEST HILLS,CA,91307,CA - Los Angeles,039 - EXTRACRANIAL PROCEDURES W/O CC/MCC
118,JOHN MUIR MEDICAL CENTER - CONCORD CAMPUS,2540 EAST ST,CONCORD,CA,94520,CA - Contra Costa County,039 - EXTRACRANIAL PROCEDURES W/O CC/MCC
119,MERCY SAN JUAN MEDICAL CENTER,6501 COYLE AVE,CARMICHAEL,CA,95608,CA - Sacramento,039 - EXTRACRANIAL PROCEDURES W/O CC/MCC
120,LOS ROBLES HOSPITAL & MEDICAL CENTER,215 W JANSS RD,THOUSAND OAKS,CA,91360,CA - Ventura,039 - EXTRACRANIAL PROCEDURES W/O CC/MCC
121,LOS ALAMITOS MEDICAL CENTER,3751 KATELLA AVENUE,LOS ALAMITOS,CA,90720,CA - Orange County,039 - EXTRACRANIAL PROCEDURES W/O CC/MCC
122,MEMORIAL  MEDICAL CENTER,1700 COFFEE RD,MODESTO,CA,95355,CA - Modesto,039 - EXTRACRANIAL PROCEDURES W/O CC/MCC
123,EISENHOWER MEDICAL CENTER,39-000 BOB HOPE DRIVE,RANCHO MIRAGE,CA,92270,CA - Palm Springs/Rancho M,039 - EXTRACRANIAL PROCEDURES W/O CC/MCC
124,UNIVERSITY OF CALIFORNIA DAVIS MEDICAL CENTER,2315 STOCKTON BOULEVARD,SACRAMENTO,CA,95817,CA - Sacramento,039 - EXTRACRANIAL PROCEDURES W/O CC/MCC
125,SADDLEBACK MEMORIAL MEDICAL CENTER,24451 HEALTH CENTER DRIVE,LAGUNA HILLS,CA,92653,CA - Orange County,039 - EXTRACRANIAL PROCEDURES W/O CC/MCC
126,CEDARS-SINAI MEDICAL CENTER,8700 BEVERLY BLVD,LOS ANGELES,CA,90048,CA - Los Angeles,039 - EXTRACRANIAL PROCEDURES W/O CC/MCC
127,SOUTHWEST HEALTHCARE SYSTEM,25500 MEDICAL CENTER DRIVE,MURRIETA,CA,92562,CA - San Diego,039 - EXTRACRANIAL PROCEDURES W/O CC/MCC
128,FRESNO HEART AND SURGICAL HOSPITAL,15 EAST AUDUBON DRIVE,FRESNO,CA,93720,CA - Fresno,039 - EXTRACRANIAL PROCEDURES W/O CC/MCC
129,ALVARADO HOSPITAL MEDICAL CENTER,6655 ALVARADO ROAD,SAN DIEGO,CA,92120,CA - San Diego,039 - EXTRACRANIAL PROCEDURES W/O CC/MCC
130,PROVIDENCE TARZANA MEDICAL CENTER,18321 CLARK STREET,TARZANA,CA,91356,CA - Los Angeles,039 - EXTRACRANIAL PROCEDURES W/O CC/MCC
131,SHASTA REGIONAL MEDICAL CENTER,1100 BUTTE ST,REDDING,CA,96001,CA - Redding,039 - EXTRACRANIAL PROCEDURES W/O CC/MCC
132,NORTH COLORADO MEDICAL CENTER,1801 16TH STREET,GREELEY,CO,80631,CO - Greeley,039 - EXTRACRANIAL PROCEDURES W/O CC/MCC
133,MERCY REGIONAL MEDICAL CENTER,1010 THREE SPRINGS BLVD,DURANGO,CO,81301,NM - Albuquerque,039 - EXTRACRANIAL PROCEDURES W/O CC/MCC
134,PRESBYTERIAN/ST LUKE'S MEDICAL CENTER,1719 E 19TH AVE,DENVER,CO,80218,CO - Denver,039 - EXTRACRANIAL PROCEDURES W/O CC/MCC
135,PARKVIEW MEDICAL CENTER INC,400 W 16TH STREET,PUEBLO,CO,81003,CO - Pueblo,039 - EXTRACRANIAL PROCEDURES W/O CC/MCC
136,MEMORIAL HOSPITAL CENTRAL,1400 E BOULDER ST,COLORADO SPRING,CO,80909,CO - Colorado Springs,039 - EXTRACRANIAL PROCEDURES W/O CC/MCC
137,ST MARYS HOSPITAL AND MEDICAL CENTER,2635 N 7TH STREET,GRAND JUNCTION,CO,81502,CO - Grand Junction,039 - EXTRACRANIAL PROCEDURES W/O CC/MCC
138,CENTURA HEALTH-PENROSE ST FRANCIS HEALTH SERVICES,2222 N NEVADA AVE,COLORADO SPRING,CO,80907,CO - Colorado Springs,039 - EXTRACRANIAL PROCEDURES W/O CC/MCC
139,CENTURA HEALTH-PORTER ADVENTIST HOSPITAL,2525 S DOWNING ST,DENVER,CO,80210,CO - Denver,039 - EXTRACRANIAL PROCEDURES W/O CC/MCC
140,"MEDICAL CENTER OF AURORA, THE",1501 S POTOMAC ST,AURORA,CO,80012,CO - Denver,039 - EXTRACRANIAL PROCEDURES W/O CC/MCC
141,MEDICAL CENTER OF THE ROCKIES,2500 ROCKY MOUNTAIN AVENUE,LOVELAND,CO,80538,CO - Greeley,039 - EXTRACRANIAL PROCEDURES W/O CC/MCC
142,HOSPITAL OF ST RAPHAEL,1450 CHAPEL ST,NEW HAVEN,CT,6511,CT - New Haven,039 - EXTRACRANIAL PROCEDURES W/O CC/MCC
143,ST FRANCIS HOSPITAL & MEDICAL CENTER,114 WOODLAND STREET,HARTFORD,CT,6105,CT - Hartford,039 - EXTRACRANIAL PROCEDURES W/O CC/MCC
144,BRIDGEPORT HOSPITAL,267 GRANT STREET,BRIDGEPORT,CT,6610,CT - Bridgeport,039 - EXTRACRANIAL PROCEDURES W/O CC/MCC
145,ROCKVILLE GENERAL HOSPITAL,31 UNION ST,ROCKVILLE,CT,6066,CT - Hartford,039 - EXTRACRANIAL PROCEDURES W/O CC/MCC
146,SAINT MARYS HOSPITAL,56 FRANKLIN ST,WATERBURY,CT,6706,CT - New Haven,039 - EXTRACRANIAL PROCEDURES W/O CC/MCC
147,MIDSTATE MEDICAL CENTER,435 LEWIS AVE,MERIDEN,CT,6450,CT - New Haven,039 - EXTRACRANIAL PROCEDURES W/O CC/MCC
148,GREENWICH HOSPITAL ASSOCIATION,5 PERRYRIDGE RD,GREENWICH,CT,6830,CT - Bridgeport,039 - EXTRACRANIAL PROCEDURES W/O CC/MCC
149,MIDDLESEX HOSPITAL,28 CRESCENT ST,MIDDLETOWN,CT,6457,CT - Hartford,039 - EXTRACRANIAL PROCEDURES W/O CC/MCC
150,YALE-NEW HAVEN HOSPITAL,20 YORK ST,NEW HAVEN,CT,6504,CT - New Haven,039 - EXTRACRANIAL PROCEDURES W/O CC/MCC
151,WILLIAM W BACKUS HOSPITAL,326 WASHINGTON ST,NORWICH,CT,6360,CT - Hartford,039 - EXTRACRANIAL PROCEDURES W/O CC/MCC
152,HARTFORD HOSPITAL,80 SEYMOUR STREET,HARTFORD,CT,6102,CT - Hartford,039 - EXTRACRANIAL PROCEDURES W/O CC/MCC
153,ST VINCENT'S MEDICAL CENTER,2800 MAIN ST,BRIDGEPORT,CT,6606,CT - Bridgeport,039 - EXTRACRANIAL PROCEDURES W/O CC/MCC
154,DANBURY HOSPITAL,24 HOSPITAL AVE,DANBURY,CT,6810,CT - New Haven,039 - EXTRACRANIAL PROCEDURES W/O CC/MCC
155,NORWALK HOSPITAL ASSOCIATION,24 STEVENS STREET,NORWALK,CT,6856,CT - Bridgeport,039 - EXTRACRANIAL PROCEDURES W/O CC/MCC
156,"HOSPITAL OF CENTRAL CONNECTICUT, THE",100 GRAND STREET,NEW BRITAIN,CT,6050,CT - Hartford,039 - EXTRACRANIAL PROCEDURES W/O CC/MCC
157,"CHRISTIANA CARE HEALTH SERVICES, INC.",4755 OGLETOWN-STANTON ROAD,NEWARK,DE,19718,DE - Wilmington,039 - EXTRACRANIAL PROCEDURES W/O CC/MCC
158,BAYHEALTH - KENT GENERAL HOSPITAL,640 S STATE STREET,DOVER,DE,19901,DE - Wilmington,039 - EXTRACRANIAL PROCEDURES W/O CC/MCC
159,BEEBE MEDICAL CENTER,424 SAVANNAH RD,LEWES,DE,19958,MD - Salisbury,039 - EXTRACRANIAL PROCEDURES W/O CC/MCC
160,GEORGE WASHINGTON UNIV HOSPITAL,900 23RD ST NW,WASHINGTON,DC,20037,DC - Washington,039 - EXTRACRANIAL PROCEDURES W/O CC/MCC
161,GEORGETOWN UNIVERSITY HOSPITAL,3800 RESERVOIR RD,WASHINGTON,DC,20007,DC - Washington,039 - EXTRACRANIAL PROCEDURES W/O CC/MCC
162,WASHINGTON HOSPITAL CENTER,110 IRVING ST NW,WASHINGTON,DC,20010,DC - Washington,039 - EXTRACRANIAL PROCEDURES W/O CC/MCC
163,BETHESDA MEMORIAL HOSPITAL,2815 S SEACREST BLVD,BOYNTON BEACH,FL,33435,FL - Fort Lauderdale,039 - EXTRACRANIAL PROCEDURES W/O CC/MCC
164,ORLANDO HEALTH,1414 S KUHL AVE,ORLANDO,FL,32806,FL - Orlando,039 - EXTRACRANIAL PROCEDURES W/O CC/MCC
165,FLORIDA HOSPITAL,601 E ROLLINS ST,ORLANDO,FL,32803,FL - Orlando,039 - EXTRACRANIAL PROCEDURES W/O CC/MCC
166,LEE MEMORIAL HOSPITAL,2776 CLEVELAND AVE,FORT MYERS,FL,33901,FL - Fort Myers,039 - EXTRACRANIAL PROCEDURES W/O CC/MCC
167,HALIFAX HEALTH MEDICAL CENTER,303 N CLYDE MORRIS BLVD,DAYTONA BEACH,FL,32114,FL - Ormond Beach,039 - EXTRACRANIAL PROCEDURES W/O CC/MCC
168,NAPLES COMMUNITY HOSPITAL,350 7TH ST N,NAPLES,FL,34102,FL - Fort Myers,039 - EXTRACRANIAL PROCEDURES W/O CC/MCC
169,HOLMES REGIONAL MEDICAL CENTER,1350 S HICKORY ST,MELBOURNE,FL,32901,FL - Orlando,039 - EXTRACRANIAL PROCEDURES W/O CC/MCC
170,CITRUS MEMORIAL HOSPITAL,502 HIGHLAND BLVD,INVERNESS,FL,34452,FL - Ocala,039 - EXTRACRANIAL PROCEDURES W/O CC/MCC
171,SACRED HEART HOSPITAL,5151 N 9TH AVE,PENSACOLA,FL,32504,FL - Pensacola,039 - EXTRACRANIAL PROCEDURES W/O CC/MCC
172,BAY MEDICAL CENTER,615 N BONITA AVE,PANAMA CITY,FL,32401,FL - Panama City,039 - EXTRACRANIAL PROCEDURES W/O CC/MCC
173,PARRISH MEDICAL CENTER,951 N WASHINGTON AVE,TITUSVILLE,FL,32796,FL - Orlando,039 - EXTRACRANIAL PROCEDURES W/O CC/MCC
174,MOUNT SINAI MEDICAL CENTER,4300 ALTON RD,MIAMI BEACH,FL,33140,FL - Miami,039 - EXTRACRANIAL PROCEDURES W/O CC/MCC
175,MANATEE MEMORIAL HOSPITAL,206 2ND ST E,BRADENTON,FL,34208,FL - Bradenton,039 - EXTRACRANIAL PROCEDURES W/O CC/MCC
176,MEMORIAL REGIONAL HOSPITAL,3501 JOHNSON ST,HOLLYWOOD,FL,33021,FL - Miami,039 - EXTRACRANIAL PROCEDURES W/O CC/MCC
177,ST VINCENT'S MEDICAL CENTER,1 SHIRCLIFF WAY,JACKSONVILLE,FL,32204,FL - Jacksonville,039 - EXTRACRANIAL PROCEDURES W/O CC/MCC
178,MARTIN MEMORIAL MEDICAL CENTER,200 SE HOSPITAL AVE,STUART,FL,34995,FL - Fort Lauderdale,039 - EXTRACRANIAL PROCEDURES W/O CC/MCC
179,FLORIDA HOSPITAL ZEPHYRHILLS,7050 GALL BLVD,ZEPHYRHILLS,FL,33541,FL - Tampa,039 - EXTRACRANIAL PROCEDURES W/O CC/MCC
180,CHARLOTTE REGIONAL MEDICAL CENTER,809 E MARION AVE,PUNTA GORDA,FL,33950,FL - Fort Myers,039 - EXTRACRANIAL PROCEDURES W/O CC/MCC
181,HIGHLANDS REGIONAL MEDICAL CENTER,3600 S HIGHLANDS AVE,SEBRING,FL,33870,FL - Orlando,039 - EXTRACRANIAL PROCEDURES W/O CC/MCC
182,WINTER HAVEN HOSPITAL,200 AVE F NE,WINTER HAVEN,FL,33881,FL - Orlando,039 - EXTRACRANIAL PROCEDURES W/O CC/MCC
183,FLORIDA HOSPITAL WATERMAN,1000 WATERMAN WAY,TAVARES,FL,32778,FL - Orlando,039 - EXTRACRANIAL PROCEDURES W/O CC/MCC
184,MUNROE REGIONAL MEDICAL CENTER,1500 SW 1ST AVE,OCALA,FL,34474,FL - Ocala,039 - EXTRACRANIAL PROCEDURES W/O CC/MCC
185,ST ANTHONY'S HOSPITAL,1200 7TH AVENUE NORTH,SAINT PETERSBUR,FL,33705,FL - St. Petersburg,039 - EXTRACRANIAL PROCEDURES W/O CC/MCC
186,FLORIDA HOSPITAL MEMORIAL MEDICAL CENTER,301 MEMORIAL MEDICAL PARKWAY,DAYTONA BEACH,FL,32117,FL - Ormond Beach,039 - EXTRACRANIAL PROCEDURES W/O CC/MCC
187,VENICE REGIONAL MEDICAL CENTER,540 THE RIALTO,VENICE,FL,34285,FL - Sarasota,039 - EXTRACRANIAL PROCEDURES W/O CC/MCC
188,BROOKSVILLE REGIONAL HOSPITAL,17240 CORTEZ BLVD,BROOKSVILLE,FL,34601,FL - Hudson,039 - EXTRACRANIAL PROCEDURES W/O CC/MCC
189,FLORIDA HOSPITAL FISH MEMORIAL,1055 SAXON BLVD,ORANGE CITY,FL,32763,FL - Orlando,039 - EXTRACRANIAL PROCEDURES W/O CC/MCC
190,HOLY CROSS HOSPITAL INC,4725 N FEDERAL HWY,FORT LAUDERDALE,FL,33308,FL - Fort Lauderdale,039 - EXTRACRANIAL PROCEDURES W/O CC/MCC
191,ST JOSEPH'S HOSPITAL,3001 W MARTIN LUTHER KING JR BLVD,TAMPA,FL,33677,FL - Tampa,039 - EXTRACRANIAL PROCEDURES W/O CC/MCC
192,PEACE RIVER REGIONAL MEDICAL CENTER,2500 HARBOR BLVD,PORT CHARLOTTE,FL,33952,FL - Fort Myers,039 - EXTRACRANIAL PROCEDURES W/O CC/MCC
193,LEESBURG REGIONAL MEDICAL CENTER,600 E DIXIE AVE,LEESBURG,FL,34748,FL - Orlando,039 - EXTRACRANIAL PROCEDURES W/O CC/MCC
194,SARASOTA MEMORIAL HOSPITAL,1700 S TAMIAMI TRL,SARASOTA,FL,34239,FL - Sarasota,039 - EXTRACRANIAL PROCEDURES W/O CC/MCC
195,BAPTIST MEDICAL CENTER,800 PRUDENTIAL DR,JACKSONVILLE,FL,32207,FL - Jacksonville,039 - EXTRACRANIAL PROCEDURES W/O CC/MCC
196,FLAGLER HOSPITAL,400 HEALTH PARK BLVD,SAINT AUGUSTINE,FL,32086,FL - Jacksonville,039 - EXTRACRANIAL PROCEDURES W/O CC/MCC
197,WUESTHOFF MEDICAL CENTER  ROCKLEDGE,110 LONGWOOD AVE,ROCKLEDGE,FL,32955,FL - Orlando,039 - EXTRACRANIAL PROCEDURES W/O CC/MCC
198,BAPTIST HOSPITAL,1000 W MORENO ST,PENSACOLA,FL,32501,FL - Pensacola,039 - EXTRACRANIAL PROCEDURES W/O CC/MCC
199,LAKE WALES MEDICAL CENTER,410 S 11TH ST,LAKE WALES,FL,33853,FL - Orlando,039 - EXTRACRANIAL PROCEDURES W/O CC/MCC
200,INDIAN RIVER MEDICAL CENTER,1000 36TH ST,VERO BEACH,FL,32960,FL - Orlando,039 - EXTRACRANIAL PROCEDURES W/O CC/MCC
201,FLORIDA HOSPITAL HEARTLAND MEDICAL CENTER,4200 SUN N' LAKE BLVD,SEBRING,FL,33871,FL - Orlando,039 - EXTRACRANIAL PROCEDURES W/O CC/MCC
202,OSCEOLA REGIONAL MEDICAL CENTER,700 WEST OAK STREET,KISSIMMEE,FL,34741,FL - Orlando,039 - EXTRACRANIAL PROCEDURES W/O CC/MCC
203,SHANDS HOSPITAL AT THE UNIVERSITY OF FLORIDA,1600 SW ARCHER RD,GAINESVILLE,FL,32610,FL - Gainesville,039 - EXTRACRANIAL PROCEDURES W/O CC/MCC
204,FLORIDA HOSPITAL FLAGLER,60 MEMORIAL MEDICAL PKWY,PALM COAST,FL,32164,FL - Ormond Beach,039 - EXTRACRANIAL PROCEDURES W/O CC/MCC
205,MORTON PLANT HOSPITAL,300 PINELLAS ST,CLEARWATER,FL,33756,FL - Clearwater,039 - EXTRACRANIAL PROCEDURES W/O CC/MCC
206,TAMPA GENERAL HOSPITAL,1 TAMPA GENERAL CIRCLE,TAMPA,FL,33606,FL - Tampa,039 - EXTRACRANIAL PROCEDURES W/O CC/MCC
207,AVENTURA HOSPITAL AND MEDICAL CENTER,20900 BISCAYNE BLVD,AVENTURA,FL,33180,FL - Miami,039 - EXTRACRANIAL PROCEDURES W/O CC/MCC
208,TALLAHASSEE MEMORIAL HEALTHCARE,1300 MICCOSUKEE RD,TALLAHASSEE,FL,32308,FL - Tallahassee,039 - EXTRACRANIAL PROCEDURES W/O CC/MCC
209,MAYO CLINIC,4500 SAN PABLO RD,JACKSONVILLE,FL,32224,FL - Jacksonville,039 - EXTRACRANIAL PROCEDURES W/O CC/MCC
210,"SOUTH MIAMI HOSPITAL, INC",6200 SW 73RD ST,SOUTH MIAMI,FL,33143,FL - Miami,039 - EXTRACRANIAL PROCEDURES W/O CC/MCC
211,LAKELAND REGIONAL MEDICAL CENTER,1324 LAKELAND HILLS BLVD,LAKELAND,FL,33805,FL - Lakeland,039 - EXTRACRANIAL PROCEDURES W/O CC/MCC
212,CENTRAL FLORIDA REGIONAL HOSPITAL,1401 W SEMINOLE BLVD,SANFORD,FL,32771,FL - Orlando,039 - EXTRACRANIAL PROCEDURES W/O CC/MCC
213,DOCTORS HOSPITAL OF SARASOTA,5731 BEE RIDGE RD,SARASOTA,FL,34233,FL - Sarasota,039 - EXTRACRANIAL PROCEDURES W/O CC/MCC
214,BOCA RATON REGIONAL HOSPITAL,800 MEADOWS RD,BOCA RATON,FL,33486,FL - Fort Lauderdale,039 - EXTRACRANIAL PROCEDURES W/O CC/MCC
215,FLORIDA HOSPITAL TAMPA,3100 E FLETCHER AVE,TAMPA,FL,33613,FL - Tampa,039 - EXTRACRANIAL PROCEDURES W/O CC/MCC
216,PALM BEACH GARDENS MEDICAL CENTER,3360 BURNS RD,PALM BEACH GARD,FL,33410,FL - Fort Lauderdale,039 - EXTRACRANIAL PROCEDURES W/O CC/MCC
217,MEMORIAL HOSPITAL JACKSONVILLE,3625 UNIVERSITY BLVD S,JACKSONVILLE,FL,32216,FL - Jacksonville,039 - EXTRACRANIAL PROCEDURES W/O CC/MCC
218,MEDICAL CENTER OF TRINITY,9330 SR 54,TRINITY,FL,34655,FL - Hudson,039 - EXTRACRANIAL PROCEDURES W/O CC/MCC
219,NORTH FLORIDA REGIONAL MEDICAL CENTER,6500 NEWBERRY RD,GAINESVILLE,FL,32605,FL - Gainesville,039 - EXTRACRANIAL PROCEDURES W/O CC/MCC
220,PASCO REGIONAL MEDICAL CENTER,13100 FT KING ROAD,DADE CITY,FL,33525,FL - Tampa,039 - EXTRACRANIAL PROCEDURES W/O CC/MCC
221,OCALA REGIONAL MEDICAL CENTER,1431 SW 1ST AVE,OCALA,FL,34478,FL - Ocala,039 - EXTRACRANIAL PROCEDURES W/O CC/MCC
222,BLAKE MEDICAL CENTER,2020 59TH ST W,BRADENTON,FL,34209,FL - Bradenton,039 - EXTRACRANIAL PROCEDURES W/O CC/MCC
223,SEBASTIAN RIVER MEDICAL CENTER,13695 US HWY 1,SEBASTIAN,FL,32978,FL - Orlando,039 - EXTRACRANIAL PROCEDURES W/O CC/MCC
224,GULF COAST MEDICAL CENTER LEE MEM HEALTH SYSTEM,13681 DOCTOR'S WAY,FORT MYERS,FL,33912,FL - Fort Myers,039 - EXTRACRANIAL PROCEDURES W/O CC/MCC
225,FORT WALTON BEACH MEDICAL CENTER,1000 MAR-WALT DR,FORT WALTON BEA,FL,32547,FL - Pensacola,039 - EXTRACRANIAL PROCEDURES W/O CC/MCC
226,ORANGE PARK MEDICAL CENTER,2001 KINGSLEY AVE,ORANGE PARK,FL,32073,FL - Jacksonville,039 - EXTRACRANIAL PROCEDURES W/O CC/MCC
227,WEST FLORIDA HOSPITAL,8383 N DAVIS HWY,PENSACOLA,FL,32514,FL - Pensacola,039 - EXTRACRANIAL PROCEDURES W/O CC/MCC
228,PUTNAM COMMUNITY MEDICAL CENTER,611 ZEAGLER DR,PALATKA,FL,32177,FL - Gainesville,039 - EXTRACRANIAL PROCEDURES W/O CC/MCC
229,FAWCETT MEMORIAL HOSPITAL,21298 OLEAN BLVD,PORT CHARLOTTE,FL,33952,FL - Fort Myers,039 - EXTRACRANIAL PROCEDURES W/O CC/MCC
230,NORTHSIDE HOSPITAL,6000 49TH STREET N,SAINT PETERSBUR,FL,33709,FL - St. Petersburg,039 - EXTRACRANIAL PROCEDURES W/O CC/MCC
231,GULF COAST MEDICAL CENTER,449 W 23RD ST,PANAMA CITY,FL,32405,FL - Panama City,039 - EXTRACRANIAL PROCEDURES W/O CC/MCC
232,BRANDON REGIONAL HOSPITAL,119 OAKFIELD DR,BRANDON,FL,33511,FL - Tampa,039 - EXTRACRANIAL PROCEDURES W/O CC/MCC
233,CAPE CORAL HOSPITAL,636 DEL PRADO BLVD,CAPE CORAL,FL,33990,FL - Fort Myers,039 - EXTRACRANIAL PROCEDURES W/O CC/MCC
234,LAWNWOOD REGIONAL MEDICAL CENTER & HEART INSTITUTE,1700 S 23RD ST,FORT PIERCE,FL,34950,FL - Orlando,039 - EXTRACRANIAL PROCEDURES W/O CC/MCC
235,LARGO MEDICAL CENTER,201 14TH ST SW,LARGO,FL,33770,FL - Clearwater,039 - EXTRACRANIAL PROCEDURES W/O CC/MCC
236,JUPITER MEDICAL CENTER,1210 S OLD DIXIE HWY,JUPITER,FL,33458,FL - Fort Lauderdale,039 - EXTRACRANIAL PROCEDURES W/O CC/MCC
237,REGIONAL MEDICAL CENTER BAYONET POINT,14000 FIVAY ROAD,HUDSON,FL,34667,FL - Hudson,039 - EXTRACRANIAL PROCEDURES W/O CC/MCC
238,DELRAY MEDICAL CENTER,5352 LINTON BLVD,DELRAY BEACH,FL,33484,FL - Fort Lauderdale,039 - EXTRACRANIAL PROCEDURES W/O CC/MCC
239,ST LUCIE MEDICAL CENTER,1800 SE TIFFANY AVE,PORT SAINT LUCI,FL,34952,FL - Fort Lauderdale,039 - EXTRACRANIAL PROCEDURES W/O CC/MCC
240,OAK HILL HOSPITAL,11375 CORTEZ BLVD,BROOKSVILLE,FL,34613,FL - Hudson,039 - EXTRACRANIAL PROCEDURES W/O CC/MCC
241,MEASE COUNTRYSIDE HOSPITAL,3231 MCMULLEN BOOTH RD,SAFETY HARBOR,FL,34695,FL - Clearwater,039 - EXTRACRANIAL PROCEDURES W/O CC/MCC
242,PHYSICIANS REGIONAL MEDICAL CENTER - PINE RIDGE,6101 PINE RIDGE ROAD,NAPLES,FL,34119,FL - Fort Myers,039 - EXTRACRANIAL PROCEDURES W/O CC/MCC
243,"VILLAGES REGIONAL HOSPITAL, THE",1451 EL CAMINO REAL,THE VILLAGES,FL,32159,FL - Orlando,039 - EXTRACRANIAL PROCEDURES W/O CC/MCC
244,SATILLA REGIONAL MEDICAL CENTER,410 DARLING AVENUE,WAYCROSS,GA,31501,FL - Jacksonville,039 - EXTRACRANIAL PROCEDURES W/O CC/MCC
245,PHOEBE PUTNEY MEMORIAL HOSPITAL,417 THIRD AVENUE,ALBANY,GA,31703,GA - Albany,039 - EXTRACRANIAL PROCEDURES W/O CC/MCC
246,EMORY UNIVERSITY HOSPITAL,"1364 CLIFTON ROAD, NE",ATLANTA,GA,30322,GA - Atlanta,039 - EXTRACRANIAL PROCEDURES W/O CC/MCC
247,TANNER MEDICAL CENTER - CARROLLTON,705 DIXIE STREET,CARROLLTON,GA,30117,GA - Atlanta,039 - EXTRACRANIAL PROCEDURES W/O CC/MCC
248,WEST GEORGIA MEDICAL CENTER,1514 VERNON ROAD,LAGRANGE,GA,30240,GA - Atlanta,039 - EXTRACRANIAL PROCEDURES W/O CC/MCC
249,UNIVERSITY HOSPITAL,1350 WALTON WAY,AUGUSTA,GA,30901,GA - Augusta,039 - EXTRACRANIAL PROCEDURES W/O CC/MCC
250,"NORTHEAST GEORGIA MEDICAL CENTER, INC",743 SPRING STREET,GAINESVILLE,GA,30501,GA - Atlanta,039 - EXTRACRANIAL PROCEDURES W/O CC/MCC
251,CARTERSVILLE MEDICAL CENTER,960 JOE FRANK HARRIS PARKWAY,CARTERSVILLE,GA,30120,GA - Atlanta,039 - EXTRACRANIAL PROCEDURES W/O CC/MCC
252,SPALDING REGIONAL MEDICAL CENTER,601 SOUTH 8TH STREET,GRIFFIN,GA,30223,GA - Atlanta,039 - EXTRACRANIAL PROCEDURES W/O CC/MCC
253,WELLSTAR KENNESTONE HOSPITAL,677 CHURCH STREET,MARIETTA,GA,30060,GA - Atlanta,039 - EXTRACRANIAL PROCEDURES W/O CC/MCC
254,"MEMORIAL HEALTH UNIV MED CEN, INC",4700 WATERS AVENUE,SAVANNAH,GA,31403,GA - Savannah,039 - EXTRACRANIAL PROCEDURES W/O CC/MCC
255,JOHN D ARCHBOLD MEMORIAL HOSPITAL,915 GORDON AVENUE & MIMOSA DRIVE,THOMASVILLE,GA,31792,FL - Tallahassee,039 - EXTRACRANIAL PROCEDURES W/O CC/MCC
256,ST JOSEPH'S HOSPITAL - SAVANNAH,11705 MERCY BOULEVARD,SAVANNAH,GA,31419,GA - Savannah,039 - EXTRACRANIAL PROCEDURES W/O CC/MCC
257,FLOYD MEDICAL CENTER,304 TURNER MCCALL BLVD P O BOX 233,ROME,GA,30162,GA - Rome,039 - EXTRACRANIAL PROCEDURES W/O CC/MCC
258,ATHENS REGIONAL MEDICAL CENTER,1199 PRINCE AVENUE,ATHENS,GA,30606,GA - Atlanta,039 - EXTRACRANIAL PROCEDURES W/O CC/MCC
259,DEKALB MEDICAL CENTER,2701 N DECATUR ROAD,DECATUR,GA,30033,GA - Atlanta,039 - EXTRACRANIAL PROCEDURES W/O CC/MCC
260,"SAINT JOSEPH'S HOSPITAL OF ATLANTA, INC",5665 PEACHTREE DUNWOODY ROAD,ATLANTA,GA,30342,GA - Atlanta,039 - EXTRACRANIAL PROCEDURES W/O CC/MCC
261,PIEDMONT HOSPITAL,1968 PEACHTREE RD NW,ATLANTA,GA,30309,GA - Atlanta,039 - EXTRACRANIAL PROCEDURES W/O CC/MCC
262,GWINNETT MEDICAL CENTER,1000 MEDICAL CENTER BOULEVARD,LAWRENCEVILLE,GA,30045,GA - Atlanta,039 - EXTRACRANIAL PROCEDURES W/O CC/MCC
263,MEDICAL CENTER OF CENTRAL GEORGIA,777 HEMLOCK STREET,MACON,GA,31201,GA - Macon,039 - EXTRACRANIAL PROCEDURES W/O CC/MCC
264,SOUTH GEORGIA MEDICAL CENTER,"2501 NORTH PATTERSON STREET, PO BOX 1727",VALDOSTA,GA,31603,FL - Tallahassee,039 - EXTRACRANIAL PROCEDURES W/O CC/MCC
265,FAIRVIEW PARK HOSPITAL,200 INDUSTRIAL BOULEVARD,DUBLIN,GA,31021,GA - Macon,039 - EXTRACRANIAL PROCEDURES W/O CC/MCC
266,"ST FRANCIS HOSPITAL, INC",2122 MANCHESTER EXPRESSWAY,COLUMBUS,GA,31995,GA - Columbus,039 - EXTRACRANIAL PROCEDURES W/O CC/MCC
267,WELLSTAR COBB HOSPITAL,3950 AUSTELL RD,AUSTELL,GA,30106,GA - Atlanta,039 - EXTRACRANIAL PROCEDURES W/O CC/MCC
268,COLISEUM MEDICAL CENTER,350 HOSPITAL DRIVE,MACON,GA,31217,GA - Macon,039 - EXTRACRANIAL PROCEDURES W/O CC/MCC
269,REDMOND REGIONAL MEDICAL CENTER,501 REDMOND ROAD,ROME,GA,30165,GA - Rome,039 - EXTRACRANIAL PROCEDURES W/O CC/MCC
270,DOCTORS HOSPITAL,3651 WHEELER ROAD,AUGUSTA,GA,30909,GA - Augusta,039 - EXTRACRANIAL PROCEDURES W/O CC/MCC
271,"HENRY MEDICAL CENTER, INC",1133 EAGLE'S LANDING PARKWAY,STOCKBRIDGE,GA,30281,GA - Atlanta,039 - EXTRACRANIAL PROCEDURES W/O CC/MCC
272,PIEDMONT FAYETTE HOSPITAL,1255 HIGHWAY 54 WEST,FAYETTEVILLE,GA,30214,GA - Atlanta,039 - EXTRACRANIAL PROCEDURES W/O CC/MCC
273,THE QUEENS MEDICAL CENTER,1301 PUNCHBOWL ST,HONOLULU,HI,96813,HI - Honolulu,039 - EXTRACRANIAL PROCEDURES W/O CC/MCC
274,ST LUKES MAGIC VALLEY RMC,801 POLE LINE ROAD WEST,TWIN FALLS,ID,83301,ID - Boise,039 - EXTRACRANIAL PROCEDURES W/O CC/MCC
275,ST LUKES REGIONAL MEDICAL CENTER,190 EAST BANNOCK STREET,BOISE,ID,83712,ID - Boise,039 - EXTRACRANIAL PROCEDURES W/O CC/MCC
276,ST ALPHONSUS REGIONAL MEDICAL CENTER,1055 NORTH CURTIS ROAD,BOISE,ID,83706,ID - Boise,039 - EXTRACRANIAL PROCEDURES W/O CC/MCC
277,EASTERN IDAHO REGIONAL MEDICAL CENTER,3100 CHANNING WAY,IDAHO FALLS,ID,83404,ID - Idaho Falls,039 - EXTRACRANIAL PROCEDURES W/O CC/MCC
278,PORTNEUF MEDICAL CENTER,777 HOSPITAL WAY,POCATELLO,ID,83201,UT - Salt Lake City,039 - EXTRACRANIAL PROCEDURES W/O CC/MCC
279,KOOTENAI MEDICAL CENTER,2003 KOOTENAI HEALTH WAY,COEUR D'ALENE,ID,83814,WA - Spokane,039 - EXTRACRANIAL PROCEDURES W/O CC/MCC
280,PROVENA ST JOSEPH MEDICAL CENTER,333 N MADISON,JOLIET,IL,60435,IL - Joliet,039 - EXTRACRANIAL PROCEDURES W/O CC/MCC
281,LOYOLA GOTTLIEB MEMORIAL HOSPITAL,701 WEST NORTH AVE,MELROSE PARK,IL,60160,IL - Melrose Park,039 - EXTRACRANIAL PROCEDURES W/O CC/MCC
282,EVANSTON HOSPITAL,2650 RIDGE AVE,EVANSTON,IL,60201,IL - Evanston,039 - EXTRACRANIAL PROCEDURES W/O CC/MCC
283,PROCTOR HOSPITAL,5409 N KNOXVILLE AVE,PEORIA,IL,61614,IL - Peoria,039 - EXTRACRANIAL PROCEDURES W/O CC/MCC
284,BLESSING HOSPITAL,BROADWAY AT 11TH STREET,QUINCY,IL,62301,IL - Springfield,039 - EXTRACRANIAL PROCEDURES W/O CC/MCC
285,COPLEY MEMORIAL HOSPITAL,2000 OGDEN AVENUE,AURORA,IL,60504,IL - Aurora,039 - EXTRACRANIAL PROCEDURES W/O CC/MCC
286,SHERMAN HOSPITAL,1425 NORTH RANDALL ROAD,ELGIN,IL,60123,IL - Elgin,039 - EXTRACRANIAL PROCEDURES W/O CC/MCC
287,GALESBURG COTTAGE HOSPITAL,695 N KELLOGG ST,GALESBURG,IL,61401,IL - Peoria,039 - EXTRACRANIAL PROCEDURES W/O CC/MCC
288,CGH MEDICAL CENTER,100 EAST LEFEVRE ROAD,STERLING,IL,61081,IL - Rockford,039 - EXTRACRANIAL PROCEDURES W/O CC/MCC
289,GOOD SAMARITAN REGIONAL HLTH CENTER,605 N 12TH STREET,MOUNT VERNON,IL,62864,MO - St. Louis,039 - EXTRACRANIAL PROCEDURES W/O CC/MCC
290,ST JOHNS HOSPITAL,800 E CARPENTER ST,SPRINGFIELD,IL,62769,IL - Springfield,039 - EXTRACRANIAL PROCEDURES W/O CC/MCC
291,MACNEAL  HOSPITAL,3249 SOUTH OAK PARK AVENUE,BERWYN,IL,60402,IL - Melrose Park,039 - EXTRACRANIAL PROCEDURES W/O CC/MCC
292,PALOS COMMUNITY HOSPITAL,12251 SOUTH 80TH AVENUE,PALOS HEIGHTS,IL,60463,IL - Blue Island,039 - EXTRACRANIAL PROCEDURES W/O CC/MCC
293,ADVENTIST LA GRANGE MEMORIAL HOSPITAL,5101 S WILLOW SPRINGS RD,LA GRANGE,IL,60525,IL - Melrose Park,039 - EXTRACRANIAL PROCEDURES W/O CC/MCC
294,SAINT FRANCIS MEDICAL CENTER,530 NE GLEN OAK AVE,PEORIA,IL,61637,IL - Peoria,039 - EXTRACRANIAL PROCEDURES W/O CC/MCC
295,RHC ST FRANCIS HOSPITAL,355 RIDGE AVE,EVANSTON,IL,60202,IL - Evanston,039 - EXTRACRANIAL PROCEDURES W/O CC/MCC
296,CARLE FOUNDATION HOSPITAL,611 WEST PARK STREET,URBANA,IL,61801,IL - Urbana,039 - EXTRACRANIAL PROCEDURES W/O CC/MCC
297,PROVENA COVENANT MEDICAL CENTER- URBANA,1400 WEST PARK AVENUE,URBANA,IL,61801,IL - Urbana,039 - EXTRACRANIAL PROCEDURES W/O CC/MCC
298,SWEDISH COVENANT HOSPITAL,5145 N CALIFORNIA AVE,CHICAGO,IL,60625,IL - Chicago,039 - EXTRACRANIAL PROCEDURES W/O CC/MCC
299,CENTEGRA HEALTH SYSTEM - MC HENRY HOSPITAL,4201 MEDICAL CENTER DRIVE,MCHENRY,IL,60050,IL - Elgin,039 - EXTRACRANIAL PROCEDURES W/O CC/MCC
300,RESURRECTION MEDICAL CENTER,7435 W TALCOTT AVENUE,CHICAGO,IL,60631,IL - Chicago,039 - EXTRACRANIAL PROCEDURES W/O CC/MCC
301,RUSH UNIVERSITY MEDICAL CENTER,1653 WEST CONGRESS PARKWAY,CHICAGO,IL,60612,IL - Chicago,039 - EXTRACRANIAL PROCEDURES W/O CC/MCC
302,BROMENN HEALTHCARE,1304 FRANKLIN AVENUE,NORMAL,IL,61761,IL - Bloomington,039 - EXTRACRANIAL PROCEDURES W/O CC/MCC
303,DECATUR MEMORIAL HOSPITAL,2300 NORTH EDWARD STREET,DECATUR,IL,62526,IL - Springfield,039 - EXTRACRANIAL PROCEDURES W/O CC/MCC
304,MEMORIAL MEDICAL CENTER,701 N FIRST ST,SPRINGFIELD,IL,62781,IL - Springfield,039 - EXTRACRANIAL PROCEDURES W/O CC/MCC
305,ST JOSEPH MEDICAL CENTER,2200 E WASHINGTON,BLOOMINGTON,IL,61701,IL - Bloomington,039 - EXTRACRANIAL PROCEDURES W/O CC/MCC
306,MEMORIAL HOSPITAL OF CARBONDALE,405 W JACKSON,CARBONDALE,IL,62902,MO - St. Louis,039 - EXTRACRANIAL PROCEDURES W/O CC/MCC
307,ST MARYS HOSPITAL,1800 E LAKE SHORE DR,DECATUR,IL,62521,IL - Springfield,039 - EXTRACRANIAL PROCEDURES W/O CC/MCC
308,FRANCISCAN ST JAMES HEALTH,20201 S CRAWFORD AVENUE,OLYMPIA FIELDS,IL,60461,IL - Blue Island,039 - EXTRACRANIAL PROCEDURES W/O CC/MCC
309,CENTEGRA HEALTH SYSTEM - WOODSTOCK HOSPITAL,3701 DOTY ROAD,WOODSTOCK,IL,60098,IL - Rockford,039 - EXTRACRANIAL PROCEDURES W/O CC/MCC
310,HEARTLAND REGIONAL MEDICAL CENTER,3333 W DE YOUNG,MARION,IL,62959,KY - Paducah,039 - EXTRACRANIAL PROCEDURES W/O CC/MCC
311,MEMORIAL HOSPITAL,4500 MEMORIAL DRIVE,BELLEVILLE,IL,62226,MO - St. Louis,039 - EXTRACRANIAL PROCEDURES W/O CC/MCC
312,RIVERSIDE MEDICAL CENTER,350 N WALL ST,KANKAKEE,IL,60901,IL - Joliet,039 - EXTRACRANIAL PROCEDURES W/O CC/MCC
313,ST ELIZABETH HOSPITAL,211 S THIRD ST,BELLEVILLE,IL,62220,MO - St. Louis,039 - EXTRACRANIAL PROCEDURES W/O CC/MCC
314,SARAH BUSH LINCOLN HEALTH CENTER,1000 HEALTH CENTER DRIVE P O BOX 372,MATTOON,IL,61938,IL - Urbana,039 - EXTRACRANIAL PROCEDURES W/O CC/MCC
315,INGALLS MEMORIAL HOSPITAL,ONE INGALLS DRIVE,HARVEY,IL,60426,IL - Blue Island,039 - EXTRACRANIAL PROCEDURES W/O CC/MCC
316,ELMHURST MEMORIAL HOSPITAL,155 EAST BRUSH HILL ROAD,ELMHURST,IL,60126,IL - Melrose Park,039 - EXTRACRANIAL PROCEDURES W/O CC/MCC
317,ADVOCATE CONDELL MEDICAL CENTER,801 S MILWAUKEE AVE,LIBERTYVILLE,IL,60048,WI - Milwaukee,039 - EXTRACRANIAL PROCEDURES W/O CC/MCC
318,ADVOCATE CHRIST HOSPITAL & MEDICAL CENTER,4440 W 95TH STREET,OAK LAWN,IL,60453,IL - Blue Island,039 - EXTRACRANIAL PROCEDURES W/O CC/MCC
319,METHODIST MEDICAL CENTER OF ILLINOIS,221 N E GLEN OAK AVE,PEORIA,IL,61636,IL - Peoria,039 - EXTRACRANIAL PROCEDURES W/O CC/MCC
320,DELNOR COMMUNITY HOSPITAL,300 RANDALL RD,GENEVA,IL,60134,IL - Melrose Park,039 - EXTRACRANIAL PROCEDURES W/O CC/MCC
321,ADVOCATE LUTHERAN GENERAL HOSPITAL,1775 DEMPSTER ST,PARK RIDGE,IL,60068,IL - Evanston,039 - EXTRACRANIAL PROCEDURES W/O CC/MCC
322,SWEDISH AMERICAN HOSPITAL,1401 EAST STATE STREET,ROCKFORD,IL,61104,IL - Rockford,039 - EXTRACRANIAL PROCEDURES W/O CC/MCC
323,EDWARD HOSPITAL,801 SOUTH WASHINGTON,NAPERVILLE,IL,60540,IL - Hinsdale,039 - EXTRACRANIAL PROCEDURES W/O CC/MCC
324,SAINT ANTHONY MEDICAL CENTER,5666 EAST STATE STREET,ROCKFORD,IL,61108,IL - Rockford,039 - EXTRACRANIAL PROCEDURES W/O CC/MCC
325,ROCKFORD MEMORIAL HOSPITAL,2400 NORTH ROCKTON AVENUE,ROCKFORD,IL,61103,IL - Rockford,039 - EXTRACRANIAL PROCEDURES W/O CC/MCC
326,NORTHWEST COMMUNITY HOSPITAL,800 W CENTRAL ROAD,ARLINGTON HEIGH,IL,60005,IL - Evanston,039 - EXTRACRANIAL PROCEDURES W/O CC/MCC
327,ALEXIAN BROTHERS MEDICAL CENTER,800 W BIESTERFIELD RD,ELK GROVE VILLA,IL,60007,IL - Melrose Park,039 - EXTRACRANIAL PROCEDURES W/O CC/MCC
328,TRINITY ROCK ISLAND,2701 17TH ST,ROCK ISLAND,IL,61201,IA - Davenport,039 - EXTRACRANIAL PROCEDURES W/O CC/MCC
329,NORTHWESTERN MEMORIAL HOSPITAL,251 E HURON ST,CHICAGO,IL,60611,IL - Chicago,039 - EXTRACRANIAL PROCEDURES W/O CC/MCC
330,ADVOCATE GOOD SAMARITAN HOSPITAL,3815 HIGHLAND AVENUE,DOWNERS GROVE,IL,60515,IL - Hinsdale,039 - EXTRACRANIAL PROCEDURES W/O CC/MCC
